CCSDS_OMM_VERS = 2.0
CREATION_DATE  = 
ORIGINATOR     = 

OBJECT_NAME    = STARLINK-36570
OBJECT_ID      = 2026-020Z
CENTER_NAME    = EARTH
REF_FRAME      = TEME
TIME_SYSTEM    = UTC
MEAN_ELEMENT_THEORY = SGP/SGP4

EPOCH          = 2026-02-16T19:29:32.471232
MEAN_MOTION    = 15.76387816
ECCENTRICITY   = .0001647
INCLINATION    = 42.9976
RA_OF_ASC_NODE = 268.8260
ARG_OF_PERICENTER = 274.5711
MEAN_ANOMALY   = 85.4970

EPHEMERIS_TYPE = 0
CLASSIFICATION_TYPE = U
NORAD_CAT_ID   = 67640
ELEMENT_SET_NO = 999
REV_AT_EPOCH   = 279
BSTAR          = .83645E-3
MEAN_MOTION_DOT = .138093E-2
MEAN_MOTION_DDOT = 0

CCSDS_OMM_VERS = 2.0
CREATION_DATE  = 
ORIGINATOR     = 

OBJECT_NAME    = STARLINK-36514
OBJECT_ID      = 2026-020AA
CENTER_NAME    = EARTH
REF_FRAME      = TEME
TIME_SYSTEM    = UTC
MEAN_ELEMENT_THEORY = SGP/SGP4

EPOCH          = 2026-02-16T16:01:20.122464
MEAN_MOTION    = 15.82338901
ECCENTRICITY   = .0002159
INCLINATION    = 42.9962
RA_OF_ASC_NODE = 269.4509
ARG_OF_PERICENTER = 242.6568
MEAN_ANOMALY   = 117.4084

EPHEMERIS_TYPE = 0
CLASSIFICATION_TYPE = U
NORAD_CAT_ID   = 67641
ELEMENT_SET_NO = 999
REV_AT_EPOCH   = 277
BSTAR          = .23404E-2
MEAN_MOTION_DOT = .531724E-2
MEAN_MOTION_DDOT = 0

CCSDS_OMM_VERS = 2.0
CREATION_DATE  = 
ORIGINATOR     = 

OBJECT_NAME    = STARLINK-36556
OBJECT_ID      = 2026-020AB
CENTER_NAME    = EARTH
REF_FRAME      = TEME
TIME_SYSTEM    = UTC
MEAN_ELEMENT_THEORY = SGP/SGP4

EPOCH          = 2026-02-14T21:35:48.513120
MEAN_MOTION    = 15.81195695
ECCENTRICITY   = .00009655
INCLINATION    = 42.9973
RA_OF_ASC_NODE = 280.2837
ARG_OF_PERICENTER = 131.0329
MEAN_ANOMALY   = 229.0626

EPHEMERIS_TYPE = 0
CLASSIFICATION_TYPE = U
NORAD_CAT_ID   = 67642
ELEMENT_SET_NO = 999
REV_AT_EPOCH   = 249
BSTAR          = .20882971E-2
MEAN_MOTION_DOT = .44532E-2
MEAN_MOTION_DDOT = 0

CCSDS_OMM_VERS = 2.0
CREATION_DATE  = 
ORIGINATOR     = 

OBJECT_NAME    = STARLINK-36533
OBJECT_ID      = 2026-020AC
CENTER_NAME    = EARTH
REF_FRAME      = TEME
TIME_SYSTEM    = UTC
MEAN_ELEMENT_THEORY = SGP/SGP4

EPOCH          = 2026-02-16T16:30:13.226112
MEAN_MOTION    = 15.76681860
ECCENTRICITY   = .0002369
INCLINATION    = 42.9968
RA_OF_ASC_NODE = 269.6130
ARG_OF_PERICENTER = 247.7377
MEAN_ANOMALY   = 112.3241

EPHEMERIS_TYPE = 0
CLASSIFICATION_TYPE = U
NORAD_CAT_ID   = 67643
ELEMENT_SET_NO = 999
REV_AT_EPOCH   = 277
BSTAR          = .27375E-2
MEAN_MOTION_DOT = .477974E-2
MEAN_MOTION_DDOT = 0

CCSDS_OMM_VERS = 2.0
CREATION_DATE  = 
ORIGINATOR     = 

OBJECT_NAME    = STARLINK-36623
OBJECT_ID      = 2026-020AD
CENTER_NAME    = EARTH
REF_FRAME      = TEME
TIME_SYSTEM    = UTC
MEAN_ELEMENT_THEORY = SGP/SGP4

EPOCH          = 2026-02-16T17:51:59.987520
MEAN_MOTION    = 15.76379888
ECCENTRICITY   = .0003006
INCLINATION    = 42.9976
RA_OF_ASC_NODE = 269.1737
ARG_OF_PERICENTER = 285.8944
MEAN_ANOMALY   = 74.1594

EPHEMERIS_TYPE = 0
CLASSIFICATION_TYPE = U
NORAD_CAT_ID   = 67644
ELEMENT_SET_NO = 999
REV_AT_EPOCH   = 278
BSTAR          = .17295E-2
MEAN_MOTION_DOT = .291238E-2
MEAN_MOTION_DDOT = 0

CCSDS_OMM_VERS = 2.0
CREATION_DATE  = 
ORIGINATOR     = 

OBJECT_NAME    = STARLINK-36619
OBJECT_ID      = 2026-020AE
CENTER_NAME    = EARTH
REF_FRAME      = TEME
TIME_SYSTEM    = UTC
MEAN_ELEMENT_THEORY = SGP/SGP4

EPOCH          = 2026-02-16T20:00:04.000032
MEAN_MOTION    = 15.76334697
ECCENTRICITY   = .000177
INCLINATION    = 42.9977
RA_OF_ASC_NODE = 268.6052
ARG_OF_PERICENTER = 288.9074
MEAN_ANOMALY   = 228.9309

EPHEMERIS_TYPE = 0
CLASSIFICATION_TYPE = U
NORAD_CAT_ID   = 67645
ELEMENT_SET_NO = 999
REV_AT_EPOCH   = 403
BSTAR          = .73907E-4
MEAN_MOTION_DOT = .11547E-3
MEAN_MOTION_DDOT = 0

CCSDS_OMM_VERS = 2.0
CREATION_DATE  = 
ORIGINATOR     = 

OBJECT_NAME    = ALSAT-3B
OBJECT_ID      = 2026-021A
CENTER_NAME    = EARTH
REF_FRAME      = TEME
TIME_SYSTEM    = UTC
MEAN_ELEMENT_THEORY = SGP/SGP4

EPOCH          = 2026-02-16T19:53:05.898336
MEAN_MOTION    = 15.23624704
ECCENTRICITY   = .0012173
INCLINATION    = 97.4713
RA_OF_ASC_NODE = 122.2554
ARG_OF_PERICENTER = 202.7607
MEAN_ANOMALY   = 157.3092

EPHEMERIS_TYPE = 0
CLASSIFICATION_TYPE = U
NORAD_CAT_ID   = 67646
ELEMENT_SET_NO = 999
REV_AT_EPOCH   = 254
BSTAR          = .30493E-3
MEAN_MOTION_DOT = .7247E-4
MEAN_MOTION_DDOT = 0

CCSDS_OMM_VERS = 2.0
CREATION_DATE  = 
ORIGINATOR     = 

OBJECT_NAME    = CZ-2C R/B
OBJECT_ID      = 2026-021B
CENTER_NAME    = EARTH
REF_FRAME      = TEME
TIME_SYSTEM    = UTC
MEAN_ELEMENT_THEORY = SGP/SGP4

EPOCH          = 2026-02-16T19:57:34.818336
MEAN_MOTION    = 15.23514461
ECCENTRICITY   = .0153466
INCLINATION    = 97.6554
RA_OF_ASC_NODE = 122.8809
ARG_OF_PERICENTER = 83.7335
MEAN_ANOMALY   = 278.1357

EPHEMERIS_TYPE = 0
CLASSIFICATION_TYPE = U
NORAD_CAT_ID   = 67647
ELEMENT_SET_NO = 999
REV_AT_EPOCH   = 252
BSTAR          = .42373E-3
MEAN_MOTION_DOT = .14048E-3
MEAN_MOTION_DDOT = 0

CCSDS_OMM_VERS = 2.0
CREATION_DATE  = 
ORIGINATOR     = 

OBJECT_NAME    = STARLINK-36719
OBJECT_ID      = 2026-022A
CENTER_NAME    = EARTH
REF_FRAME      = TEME
TIME_SYSTEM    = UTC
MEAN_ELEMENT_THEORY = SGP/SGP4

EPOCH          = 2026-02-16T20:00:04.000032
MEAN_MOTION    = 15.75213997
ECCENTRICITY   = .0001527
INCLINATION    = 97.2844
RA_OF_ASC_NODE = 80.7711
ARG_OF_PERICENTER = 82.4898
MEAN_ANOMALY   = 321.5896

EPHEMERIS_TYPE = 0
CLASSIFICATION_TYPE = U
NORAD_CAT_ID   = 67648
ELEMENT_SET_NO = 999
REV_AT_EPOCH   = 354
BSTAR          = -.60797E-3
MEAN_MOTION_DOT = -.8996E-3
MEAN_MOTION_DDOT = 0

CCSDS_OMM_VERS = 2.0
CREATION_DATE  = 
ORIGINATOR     = 

OBJECT_NAME    = STARLINK-36342
OBJECT_ID      = 2026-022B
CENTER_NAME    = EARTH
REF_FRAME      = TEME
TIME_SYSTEM    = UTC
MEAN_ELEMENT_THEORY = SGP/SGP4

EPOCH          = 2026-02-16T20:00:04.000032
MEAN_MOTION    = 15.75237006
ECCENTRICITY   = .0001341
INCLINATION    = 97.2844
RA_OF_ASC_NODE = 80.7723
ARG_OF_PERICENTER = 88.2033
MEAN_ANOMALY   = 319.8708

EPHEMERIS_TYPE = 0
CLASSIFICATION_TYPE = U
NORAD_CAT_ID   = 67649
ELEMENT_SET_NO = 999
REV_AT_EPOCH   = 354
BSTAR          = -.86512E-3
MEAN_MOTION_DOT = -.127522E-2
MEAN_MOTION_DDOT = 0

CCSDS_OMM_VERS = 2.0
CREATION_DATE  = 
ORIGINATOR     = 

OBJECT_NAME    = STARLINK-36703
OBJECT_ID      = 2026-022C
CENTER_NAME    = EARTH
REF_FRAME      = TEME
TIME_SYSTEM    = UTC
MEAN_ELEMENT_THEORY = SGP/SGP4

EPOCH          = 2026-02-16T20:00:04.000032
MEAN_MOTION    = 15.75230399
ECCENTRICITY   = .0001518
INCLINATION    = 97.2853
RA_OF_ASC_NODE = 80.7739
ARG_OF_PERICENTER = 101.2691
MEAN_ANOMALY   = 312.8126

EPHEMERIS_TYPE = 0
CLASSIFICATION_TYPE = U
NORAD_CAT_ID   = 67650
ELEMENT_SET_NO = 999
REV_AT_EPOCH   = 354
BSTAR          = -.10003E-2
MEAN_MOTION_DOT = -.147056E-2
MEAN_MOTION_DDOT = 0

CCSDS_OMM_VERS = 2.0
CREATION_DATE  = 
ORIGINATOR     = 

OBJECT_NAME    = STARLINK-36696
OBJECT_ID      = 2026-022D
CENTER_NAME    = EARTH
REF_FRAME      = TEME
TIME_SYSTEM    = UTC
MEAN_ELEMENT_THEORY = SGP/SGP4

EPOCH          = 2026-02-16T20:00:04.000032
MEAN_MOTION    = 15.75228547
ECCENTRICITY   = .00016
INCLINATION    = 97.2842
RA_OF_ASC_NODE = 80.7778
ARG_OF_PERICENTER = 81.5316
MEAN_ANOMALY   = 342.5479

EPHEMERIS_TYPE = 0
CLASSIFICATION_TYPE = U
NORAD_CAT_ID   = 67651
ELEMENT_SET_NO = 999
REV_AT_EPOCH   = 354
BSTAR          = -.10556E-2
MEAN_MOTION_DOT = -.155023E-2
MEAN_MOTION_DDOT = 0

