STARLINK-36570          
1 67640U 26020Z   26047.81218138  .00138093  00000+0  83645-3 0  9996
2 67640  42.9976 268.8260 0001647 274.5711  85.4970 15.76387816  2792
STARLINK-36514          
1 67641U 26020AA  26047.66759401  .00531724  00000+0  23404-2 0  9997
2 67641  42.9962 269.4509 0002159 242.6568 117.4084 15.82338901  2774
STARLINK-36556          
1 67642U 26020AB  26045.89986705  .00445320  00000+0  20883-2 0  9994
2 67642  42.9973 280.2837 0000965 131.0329 229.0626 15.81195695  2492
STARLINK-36533          
1 67643U 26020AC  26047.68765308  .00477974  00000+0  27375-2 0  9991
2 67643  42.9968 269.6130 0002369 247.7377 112.3241 15.76681860  2778
STARLINK-36623          
1 67644U 26020AD  26047.74444430  .00291238  00000+0  17295-2 0  9996
2 67644  42.9976 269.1737 0003006 285.8944  74.1594 15.76379888  2789
STARLINK-36619          
1 67645U 26020AE  26047.83337963  .00011547  00000+0  73907-4 0  9996
2 67645  42.9977 268.6052 0001770 288.9074 228.9309 15.76334697  4031
ALSAT-3B                
1 67646U 26021A   26047.82854049  .00007247  00000+0  30493-3 0  9990
2 67646  97.4713 122.2554 0012173 202.7607 157.3092 15.23624704  2543
CZ-2C R/B               
1 67647U 26021B   26047.83165299  .00014048  00000+0  42373-3 0  9991
2 67647  97.6554 122.8809 0153466  83.7335 278.1357 15.23514461  2526
STARLINK-36719          
1 67648U 26022A   26047.83337963 -.00089960  00000+0 -60797-3 0  9999
2 67648  97.2844  80.7711 0001527  82.4898 321.5896 15.75213997  3540
STARLINK-36342          
1 67649U 26022B   26047.83337963 -.00127522  00000+0 -86512-3 0  9990
2 67649  97.2844  80.7723 0001341  88.2033 319.8708 15.75237006  3542
STARLINK-36703          
1 67650U 26022C   26047.83337963 -.00147056  00000+0 -10003-2 0  9997
2 67650  97.2853  80.7739 0001518 101.2691 312.8126 15.75230399  3548
STARLINK-36696          
1 67651U 26022D   26047.83337963 -.00155023  00000+0 -10556-2 0  9994
2 67651  97.2842  80.7778 0001600  81.5316 342.5479 15.75228547  3549
